H1 CPF  1  DLR 2022 11 02 10  8062 technosat            
H2  1704205 6203    42829 2022 11 02 00 00 00 2022 11 09 00 00 00    60 1 1  0 0 0
H9
10 0 59889  57600.000000  0      -4455201.259      -5041619.631       1838369.811
10 0 59889  57660.000000  0      -4434033.039      -4882734.231       2267740.700
10 0 59889  57720.000000  0      -4392711.786      -4703558.182       2687491.382
10 0 59889  57780.000000  0      -4331242.072      -4505026.723       3095843.735
10 0 59889  57840.000000  0      -4249722.228      -4288156.307       3491069.067
10 0 59889  57900.000000  0      -4148344.470      -4054039.307       3871495.503
10 0 59889  57960.000000  0      -4027394.544      -3803838.379       4235515.092
10 0 59889  58020.000000  0      -3887250.904      -3538780.515       4581590.538
10 0 59889  58080.000000  0      -3728383.471      -3260150.884       4908261.541
10 0 59889  58140.000000  0      -3551351.999      -2969286.509       5214150.794
10 0 59889  58200.000000  0      -3356803.993      -2667569.765       5497969.615
10 0 59889  58260.000000  0      -3145472.241      -2356421.779       5758523.166
10 0 59889  58320.000000  0      -2918171.961      -2037295.710       5994715.311
10 0 59889  58380.000000  0      -2675797.546      -1711669.916       6205553.037
10 0 59889  58440.000000  0      -2419318.988      -1381041.079       6390150.434
10 0 59889  58500.000000  0      -2149777.881      -1046917.262       6547732.251
10 0 59889  58560.000000  0      -1868283.052       -710811.011       6677636.868
10 0 59889  58620.000000  0      -1576005.941       -374232.578       6779318.721
10 0 59889  58680.000000  0      -1274175.810        -38683.324       6852350.376
10 0 59889  58740.000000  0       -964074.657        294350.879       6896424.258
10 0 59889  58800.000000  0       -647031.834        623406.155       6911353.890
10 0 59889  58860.000000  0       -324418.416        947046.985       6897074.638
10 0 59889  58920.000000  0          2358.639       1263872.392       6853644.007
10 0 59889  58980.000000  0        331862.538       1572521.962       6781241.492
10 0 59889  59040.000000  0        662632.918       1871681.670       6680167.891
10 0 59889  59100.000000  0        993192.217       2160089.399       6550844.137
10 0 59889  59160.000000  0       1322052.176       2436540.231       6393809.740
10 0 59889  59220.000000  0       1647720.454       2699891.476       6209720.763
10 0 59889  59280.000000  0       1968707.337       2949067.460       5999347.372
10 0 59889  59340.000000  0       2283532.528       3183064.022       5763570.900
10 0 59889  59400.000000  0       2590732.006       3400952.689       5503380.455
10 0 59889  59460.000000  0       2888864.924       3601884.537       5219869.025
10 0 59889  59520.000000  0       3176520.443       3785093.635       4914229.025
10 0 59889  59580.000000  0       3452324.400       3949900.028       4587747.484
10 0 59889  59640.000000  0       3714945.915       4095712.402       4241800.941
10 0 59889  59700.000000  0       3963103.896       4222030.471       3877849.962
10 0 59889  59760.000000  0       4195573.665       4328446.991       3497433.173
10 0 59889  59820.000000  0       4411193.312       4414649.090       3102160.544
10 0 59889  59880.000000  0       4608869.406       4480419.100       2693706.554
10 0 59889  59940.000000  0       4787582.662       4525635.169       2273803.237
10 0 59889  60000.000000  0       4946393.382       4550271.337       1844232.743
10 0 59889  60060.000000  0       5084446.524       4554397.070       1406819.656
10 0 59889  60120.000000  0       5200976.411       4538176.327        963423.044
10 0 59889  60180.000000  0       5295310.973       4501866.196        515928.298
10 0 59889  60240.000000  0       5366875.500       4445815.028         66238.806
10 0 59889  60300.000000  0       5415195.918       4370460.089       -383732.387
10 0 59889  60360.000000  0       5439901.621       4276324.814       -832070.955
10 0 59889  60420.000000  0       5440727.810       4164015.651      -1276869.722
10 0 59889  60480.000000  0       5417517.297       4034218.451      -1716237.039
10 0 59889  60540.000000  0       5370221.789       3887694.481      -2148305.070
10 0 59889  60600.000000  0       5298902.613       3725276.105      -2571237.949
10 0 59889  60660.000000  0       5203730.903       3547862.151      -2983239.753
10 0 59889  60720.000000  0       5084987.276       3356412.999      -3382562.275
10 0 59889  60780.000000  0       4943060.962       3151945.430      -3767512.573
10 0 59889  60840.000000  0       4778448.384       2935527.211      -4136460.273
10 0 59889  60900.000000  0       4591751.208       2708271.394      -4487844.492
10 0 59889  60960.000000  0       4383673.917       2471330.508      -4820180.340
10 0 59889  61020.000000  0       4155020.924       2225890.669      -5132065.093
10 0 59889  61080.000000  0       3906693.215       1973165.571      -5422183.967
10 0 59889  61140.000000  0       3639684.568       1714390.446      -5689315.473
10 0 59889  61200.000000  0       3355077.339       1450816.022      -5932336.372
10 0 59889  61260.000000  0       3054037.817       1183702.436      -6150226.179
10 0 59889  61320.000000  0       2737811.253        914313.203      -6342071.124
10 0 59889  61380.000000  0       2407716.567        643909.279      -6507067.706
10 0 59889  61440.000000  0       2065140.746        373743.220      -6644525.752
10 0 59889  61500.000000  0       1711533.043        105053.462      -6753871.064
10 0 59889  61560.000000  0       1348398.834       -160941.312      -6834647.737
10 0 59889  61620.000000  0        977293.086       -423047.678      -6886519.875
10 0 59889  61680.000000  0        599813.687       -680102.746      -6909272.722
10 0 59889  61740.000000  0        217594.667       -930979.215      -6902813.391
10 0 59889  61800.000000  0       -167700.770      -1174590.217      -6867171.166
10 0 59889  61860.000000  0       -554387.360      -1409893.918      -6802497.388
10 0 59889  61920.000000  0       -940765.095      -1635897.932      -6709064.900
10 0 59889  61980.000000  0      -1325126.620      -1851663.472      -6587266.954
10 0 59889  62040.000000  0      -1705764.703      -2056309.258      -6437615.646
10 0 59889  62100.000000  0      -2080979.720      -2249015.060      -6260739.862
10 0 59889  62160.000000  0      -2449087.134      -2429024.969      -6057382.847
10 0 59889  62220.000000  0      -2808424.994      -2595650.387      -5828399.339
10 0 59889  62280.000000  0      -3157361.463      -2748272.722      -5574752.281
10 0 59889  62340.000000  0      -3494302.327      -2886345.772      -5297509.035
10 0 59889  62400.000000  0      -3817698.394      -3009397.754      -4997837.075
10 0 59889  62460.000000  0      -4126052.701      -3117032.926      -4676999.247
10 0 59889  62520.000000  0      -4417927.556      -3208932.873      -4336348.666
10 0 59889  62580.000000  0      -4691951.410      -3284857.417      -3977323.185
10 0 59889  62640.000000  0      -4946825.492      -3344645.159      -3601439.474
10 0 59889  62700.000000  0      -5181330.170      -3388213.637      -3210286.698
10 0 59889  62760.000000  0      -5394330.993      -3415559.094      -2805519.857
10 0 59889  62820.000000  0      -5584784.397      -3426755.850      -2388852.760
10 0 59889  62880.000000  0      -5751742.956      -3421955.269      -1962050.715
10 0 59889  62940.000000  0      -5894360.245      -3401384.366      -1526923.016
10 0 59889  63000.000000  0      -6011895.305      -3365344.049      -1085315.134
10 0 59889  63060.000000  0      -6103716.541      -3314206.940       -639100.712
10 0 59889  63120.000000  0      -6169305.140      -3248414.870       -190173.475
10 0 59889  63180.000000  0      -6208258.009      -3168476.038        259561.003
10 0 59889  63240.000000  0      -6220290.129      -3074961.848        708193.649
10 0 59889  63300.000000  0      -6205236.306      -2968503.412       1153820.273
10 0 59889  63360.000000  0      -6163052.305      -2849787.764       1594549.905
10 0 59889  63420.000000  0      -6093815.372      -2719553.781       2028513.038
10 0 59889  63480.000000  0      -5997724.166      -2578587.891       2453869.668
10 0 59889  63540.000000  0      -5875098.231      -2427719.628       2868817.182
10 0 59889  63600.000000  0      -5726376.895      -2267817.009       3271598.187
10 0 59889  63660.000000  0      -5552117.461      -2099781.685       3660508.115
10 0 59889  63720.000000  0      -5352992.818      -1924543.962       4033902.451
10 0 59889  63780.000000  0      -5129788.542      -1743057.753       4390203.608
10 0 59889  63840.000000  0      -4883399.547      -1556295.506       4727907.459
10 0 59889  63900.000000  0      -4614826.263      -1365243.117       5045589.529
10 0 59889  63960.000000  0      -4325170.372      -1170894.857       5341910.839
10 0 59889  64020.000000  0      -4015630.122       -974248.310       5615623.418
10 0 59889  64080.000000  0      -3687495.140       -776299.309       5865575.403
10 0 59889  64140.000000  0      -3342140.880       -578036.965       6090715.673
10 0 59889  64200.000000  0      -2981022.671       -380438.791       6290098.067
10 0 59889  64260.000000  0      -2605669.415       -184465.961       6462885.073
10 0 59889  64320.000000  0      -2217677.030          8941.230       6608351.067
10 0 59889  64380.000000  0      -1818701.641        198867.744       6725885.136
10 0 59889  64440.000000  0      -1410452.534        384428.041       6814993.458
10 0 59889  64500.000000  0       -994684.890        564770.130       6875301.214
10 0 59889  64560.000000  0       -573192.321        739079.413       6906554.055
10 0 59889  64620.000000  0       -147799.236        906582.299       6908619.088
10 0 59889  64680.000000  0        279646.921       1066549.593       6881485.430
10 0 59889  64740.000000  0        707283.590       1218299.657       6825264.319
99
